{"type": "FeatureCollection", "features": [ {"type": "Feature", "properties": {"norad_id": 44622, "name": "GAOFEN-10R", "group": "resource", "lat": -8.255140024098894, "lon": 109.30031112785204, "alt_km": 628.6807634202414, "timestamp": "2025-12-08T23:34:03.627299+00:00", "meta": {"OBJECT_NAME": "GAOFEN-10R", "OBJECT_ID": "2019-066A", "EPOCH": "2025-12-08T14:37:27.186816", "MEAN_MOTION": 14.82771194, "ECCENTRICITY": 0.00080708, "INCLINATION": 98.0276, "RA_OF_ASC_NODE": 290.0995, "ARG_OF_PERICENTER": 53.3445, "MEAN_ANOMALY": 306.8509, "EPHEMERIS_TYPE": 0, "CLASSIFICATION_TYPE": "U", "NORAD_CAT_ID": 44622, "ELEMENT_SET_NO": 999, "REV_AT_EPOCH": 33413, "BSTAR": 0.00040982012, "MEAN_MOTION_DOT": 3.26e-05, "MEAN_MOTION_DDOT": 0}, "tle": {"line1": "1 44622U 19066A   25342.60934244  .00003260  00000+0  40982-3 0  9994", "line2": "2 44622  98.0276 290.0995 0008070  53.3445 306.8509 14.82771194334134"}}, "geometry": {"type": "Point", "coordinates": [109.30031112785204, -8.255140024098894]}}, {"type": "Feature", "properties": {"norad_id": 44804, "name": "CARTOSAT-3", "group": "resource", "lat": -38.455818072689176, "lon": -143.3592885093873, "alt_km": 519.1874609090855, "timestamp": "2025-12-08T23:34:03.627309+00:00", "meta": {"OBJECT_NAME": "CARTOSAT-3", "OBJECT_ID": "2019-081A", "EPOCH": "2025-12-08T14:42:20.770560", "MEAN_MOTION": 15.19318391, "ECCENTRICITY": 0.00139577, "INCLINATION": 97.4585, "RA_OF_ASC_NODE": 42.2481, "ARG_OF_PERICENTER": 100.0342, "MEAN_ANOMALY": 260.2468, "EPHEMERIS_TYPE": 0, "CLASSIFICATION_TYPE": "U", "NORAD_CAT_ID": 44804, "ELEMENT_SET_NO": 999, "REV_AT_EPOCH": 33453, "BSTAR": 0.00031457796, "MEAN_MOTION_DOT": 6.592e-05, "MEAN_MOTION_DDOT": 0}, "tle": {"line1": "1 44804U 19081A   25342.61274040  .00006592  00000+0  31458-3 0  9994", "line2": "2 44804  97.4585  42.2481 0013957 100.0342 260.2468 15.19318391334533"}}, "geometry": {"type": "Point", "coordinates": [-143.3592885093873, -38.455818072689176]}}, {"type": "Feature", "properties": {"norad_id": 44819, "name": "GAOFEN-12 01", "group": "resource", "lat": 55.17111068174397, "lon": -179.25711939717422, "alt_km": 622.6342448705509, "timestamp": "2025-12-08T23:34:03.627320+00:00", "meta": {"OBJECT_NAME": "GAOFEN-12 01", "OBJECT_ID": "2019-082A", "EPOCH": "2025-12-08T14:54:00.098208", "MEAN_MOTION": 14.80650606, "ECCENTRICITY": 0.00011876, "INCLINATION": 97.8126, "RA_OF_ASC_NODE": 349.01, "ARG_OF_PERICENTER": 260.9521, "MEAN_ANOMALY": 99.1557, "EPHEMERIS_TYPE": 0, "CLASSIFICATION_TYPE": "U", "NORAD_CAT_ID": 44819, "ELEMENT_SET_NO": 999, "REV_AT_EPOCH": 32589, "BSTAR": 0.00013971946, "MEAN_MOTION_DOT": 1.022e-05, "MEAN_MOTION_DDOT": 0}, "tle": {"line1": "1 44819U 19082A   25342.62083447  .00001022  00000+0  13972-3 0  9995", "line2": "2 44819  97.8126 349.0100 0001187 260.9521  99.1557 14.80650606325899"}}, "geometry": {"type": "Point", "coordinates": [-179.25711939717422, 55.17111068174397]}}, {"type": "Feature", "properties": {"norad_id": 44873, "name": "CSG-1", "group": "resource", "lat": -34.309707693038696, "lon": -21.061520427902213, "alt_km": 629.4283804415873, "timestamp": "2025-12-08T23:34:03.627334+00:00", "meta": {"OBJECT_NAME": "CSG-1", "OBJECT_ID": "2019-092A", "EPOCH": "2025-12-08T14:30:04.849920", "MEAN_MOTION": 14.8215625, "ECCENTRICITY": 0.00014648, "INCLINATION": 97.8812, "RA_OF_ASC_NODE": 163.9906, "ARG_OF_PERICENTER": 85.7346, "MEAN_ANOMALY": 274.4035, "EPHEMERIS_TYPE": 0, "CLASSIFICATION_TYPE": "U", "NORAD_CAT_ID": 44873, "ELEMENT_SET_NO": 999, "REV_AT_EPOCH": 32324, "BSTAR": 0.00016588406, "MEAN_MOTION_DOT": 1.269e-05, "MEAN_MOTION_DDOT": 0}, "tle": {"line1": "1 44873U 19092A   25342.60422280  .00001269  00000+0  16588-3 0  9995", "line2": "2 44873  97.8812 163.9906 0001464  85.7346 274.4035 14.82156250323248"}}, "geometry": {"type": "Point", "coordinates": [-21.061520427902213, -34.309707693038696]}}, {"type": "Feature", "properties": {"norad_id": 46277, "name": "NEMO-HD", "group": "resource", "lat": -50.878916980919215, "lon": 51.09705170186375, "alt_km": 453.0062330997089, "timestamp": "2025-12-08T23:34:03.627344+00:00", "meta": {"OBJECT_NAME": "NEMO-HD", "OBJECT_ID": "2020-061F", "EPOCH": "2025-12-08T14:26:06.496512", "MEAN_MOTION": 15.40196834, "ECCENTRICITY": 0.00021263, "INCLINATION": 97.2211, "RA_OF_ASC_NODE": 41.7523, "ARG_OF_PERICENTER": 60.992, "MEAN_ANOMALY": 299.154, "EPHEMERIS_TYPE": 0, "CLASSIFICATION_TYPE": "U", "NORAD_CAT_ID": 46277, "ELEMENT_SET_NO": 999, "REV_AT_EPOCH": 29260, "BSTAR": 0.00033970747, "MEAN_MOTION_DOT": 0.00013568, "MEAN_MOTION_DDOT": 0}, "tle": {"line1": "1 46277U 20061F   25342.60146408  .00013568  00000+0  33971-3 0  9998", "line2": "2 46277  97.2211  41.7523 0002126  60.9920 299.1540 15.40196834292609"}}, "geometry": {"type": "Point", "coordinates": [51.09705170186375, -50.878916980919215]}}, {"type": "Feature", "properties": {"norad_id": 46984, "name": "SENTINEL-6A", "group": "resource", "lat": 46.471930629533006, "lon": -161.97471874762581, "alt_km": 1337.5202798554647, "timestamp": "2025-12-08T23:34:03.627354+00:00", "meta": {"OBJECT_NAME": "SENTINEL-6A", "OBJECT_ID": "2020-086A", "EPOCH": "2025-12-08T13:55:31.002816", "MEAN_MOTION": 12.80930453, "ECCENTRICITY": 0.00077381, "INCLINATION": 66.0392, "RA_OF_ASC_NODE": 170.9479, "ARG_OF_PERICENTER": 269.2212, "MEAN_ANOMALY": 90.7916, "EPHEMERIS_TYPE": 0, "CLASSIFICATION_TYPE": "U", "NORAD_CAT_ID": 46984, "ELEMENT_SET_NO": 999, "REV_AT_EPOCH": 23591, "BSTAR": 4.6976098e-05, "MEAN_MOTION_DOT": -5e-07, "MEAN_MOTION_DDOT": 0}, "tle": {"line1": "1 46984U 20086A   25342.58021994 -.00000050  00000+0  46976-4 0  9992", "line2": "2 46984  66.0392 170.9479 0007738 269.2212  90.7916 12.80930453235912"}}, "geometry": {"type": "Point", "coordinates": [-161.97471874762581, 46.471930629533006]}}, {"type": "Feature", "properties": {"norad_id": 48079, "name": "GAOFEN-12 02", "group": "resource", "lat": 44.35679926577401, "lon": 164.8953911452999, "alt_km": 621.3179352886382, "timestamp": "2025-12-08T23:34:03.627365+00:00", "meta": {"OBJECT_NAME": "GAOFEN-12 02", "OBJECT_ID": "2021-026A", "EPOCH": "2025-12-08T14:51:03.010176", "MEAN_MOTION": 14.80668206, "ECCENTRICITY": 0.00034499, "INCLINATION": 97.985, "RA_OF_ASC_NODE": 336.6451, "ARG_OF_PERICENTER": 109.0593, "MEAN_ANOMALY": 251.0993, "EPHEMERIS_TYPE": 0, "CLASSIFICATION_TYPE": "U", "NORAD_CAT_ID": 48079, "ELEMENT_SET_NO": 999, "REV_AT_EPOCH": 25356, "BSTAR": 0.00014387497, "MEAN_MOTION_DOT": 1.053e-05, "MEAN_MOTION_DDOT": 0}, "tle": {"line1": "1 48079U 21026A   25342.61878484  .00001053  00000+0  14387-3 0  9995", "line2": "2 48079  97.9850 336.6451 0003449 109.0593 251.0993 14.80668206253564"}}, "geometry": {"type": "Point", "coordinates": [164.8953911452999, 44.35679926577401]}}, {"type": "Feature", "properties": {"norad_id": 48268, "name": "PLEIADES NEO 3", "group": "resource", "lat": -8.520647071125333, "lon": -125.71439402554445, "alt_km": 628.1540676603918, "timestamp": "2025-12-08T23:34:03.627376+00:00", "meta": {"OBJECT_NAME": "PLEIADES NEO 3", "OBJECT_ID": "2021-034A", "EPOCH": "2025-12-08T12:59:42.338400", "MEAN_MOTION": 14.81671885, "ECCENTRICITY": 0.00012572, "INCLINATION": 97.8951, "RA_OF_ASC_NODE": 55.0427, "ARG_OF_PERICENTER": 97.348, "MEAN_ANOMALY": 262.7876, "EPHEMERIS_TYPE": 0, "CLASSIFICATION_TYPE": "U", "NORAD_CAT_ID": 48268, "ELEMENT_SET_NO": 999, "REV_AT_EPOCH": 24942, "BSTAR": 2.6887228e-05, "MEAN_MOTION_DOT": 1.6e-06, "MEAN_MOTION_DDOT": 0}, "tle": {"line1": "1 48268U 21034A   25342.54146225  .00000160  00000+0  26887-4 0  9994", "line2": "2 48268  97.8951  55.0427 0001257  97.3480 262.7876 14.81671885249426"}}, "geometry": {"type": "Point", "coordinates": [-125.71439402554445, -8.520647071125333]}}, {"type": "Feature", "properties": {"norad_id": 49070, "name": "PLEIADES NEO 4", "group": "resource", "lat": 8.323310938835249, "lon": 54.30959138810573, "alt_km": 625.868438957139, "timestamp": "2025-12-08T23:34:03.627386+00:00", "meta": {"OBJECT_NAME": "PLEIADES NEO 4", "OBJECT_ID": "2021-073E", "EPOCH": "2025-12-08T20:17:17.873664", "MEAN_MOTION": 14.81674316, "ECCENTRICITY": 0.0001327, "INCLINATION": 97.8951, "RA_OF_ASC_NODE": 55.3382, "ARG_OF_PERICENTER": 95.8767, "MEAN_ANOMALY": 264.2597, "EPHEMERIS_TYPE": 0, "CLASSIFICATION_TYPE": "U", "NORAD_CAT_ID": 49070, "ELEMENT_SET_NO": 999, "REV_AT_EPOCH": 23318, "BSTAR": 8.6617e-05, "MEAN_MOTION_DOT": 6.3e-06, "MEAN_MOTION_DDOT": 0}, "tle": {"line1": "1 49070U 21073E   25342.84534576  .00000630  00000+0  86617-4 0  9991", "line2": "2 49070  97.8951  55.3382 0001327  95.8767 264.2597 14.81674316233185"}}, "geometry": {"type": "Point", "coordinates": [54.30959138810573, 8.323310938835249]}}, {"type": "Feature", "properties": {"norad_id": 49260, "name": "LANDSAT 9", "group": "resource", "lat": -3.1689967785399746, "lon": 51.60545508119948, "alt_km": 705.944830235836, "timestamp": "2025-12-08T23:34:03.627396+00:00", "meta": {"OBJECT_NAME": "LANDSAT 9", "OBJECT_ID": "2021-088A", "EPOCH": "2025-12-08T15:20:31.418592", "MEAN_MOTION": 14.57124628, "ECCENTRICITY": 0.00011142, "INCLINATION": 98.2099, "RA_OF_ASC_NODE": 50.8097, "ARG_OF_PERICENTER": 94.4212, "MEAN_ANOMALY": 265.7114, "EPHEMERIS_TYPE": 0, "CLASSIFICATION_TYPE": "U", "NORAD_CAT_ID": 49260, "ELEMENT_SET_NO": 999, "REV_AT_EPOCH": 22325, "BSTAR": 0.00021557005, "MEAN_MOTION_DOT": 9.26e-06, "MEAN_MOTION_DDOT": 0}, "tle": {"line1": "1 49260U 21088A   25342.63925253  .00000926  00000+0  21557-3 0  9990", "line2": "2 49260  98.2099  50.8097 0001114  94.4212 265.7114 14.57124628223258"}}, "geometry": {"type": "Point", "coordinates": [51.60545508119948, -3.1689967785399746]}}]}